HAWK-11A                
1 62382U 24247F   26068.51231358  .00009457  00000+0  34106-3 0  9991
2 62382  44.9941 114.3328 0005466 327.3713  32.6832 15.28849427 67741
STARLINK-33891          
1 63827U 25092Z   26068.32020249  .00036012  00000+0  13113-2 0  9990
2 63827  42.9989 175.0118 0002911 294.0448  66.0099 15.27590697 48492
